NORAD_CAT_ID,OBJECT_NAME,OBJECT_TYPE,EPOCH,MEAN_MOTION,ECCENTRICITY,INCLINATION,RA_OF_ASC_NODE,ARG_OF_PERICENTER,MEAN_ANOMALY,BSTAR,MEAN_MOTION_DOT,MEAN_MOTION_DDOT,TLE_LINE0,TLE_LINE1,TLE_LINE2,SEMIMAJOR_AXIS,PERIOD,APOGEE,PERIGEE,DECAYED
51773.0,STARLINK-3624,PAYLOAD,2022-04-21 14:00:01,15.61117141,0.0001903,53.2173,232.0153,28.8674,65.6073,-0.0090943,-0.00716238,0.0,0 STARLINK-3624,1 51773U 22017F   22111.58334491 -.00716238  00000-0 -90943-2 0  9995,2 51773  53.2173 232.0153 0001903  28.8674  65.6073 15.61117141  3716,6762.566,92.242,385.718,383.144,0.0
51773.0,STARLINK-3624,PAYLOAD,2022-04-21 22:00:00,15.60607402,0.0001561999999999,53.2171,230.3936,44.4312,124.1424,-0.009281,-0.00716536,0.0,0 STARLINK-3624,1 51773U 22017F   22111.91667824 -.00716536  00000-0 -92810-2 0  9997,2 51773  53.2171 230.3936 0001562  44.4312 124.1424 15.60607402  3688,6764.038000000001,92.272,386.96,384.847,0.0
51773.0,STARLINK-3624,PAYLOAD,2022-04-22 14:00:01,15.59586976,0.0001769,53.2173,227.1548,33.1624,281.7701,-0.0096399,-0.00715677,0.0,0 STARLINK-3624,1 51773U 22017F   22112.58334491 -.00715677  00000-0 -96399-2 0  9993,2 51773  53.2173 227.1548 0001769  33.1624 281.7701 15.59586976  3704,6766.989000000001,92.332,390.051,387.656,0.0
51773.0,STARLINK-3624,PAYLOAD,2022-04-22 22:00:00,15.59077319,0.0001785,53.2173,225.5368,27.903,359.2897,-0.0098273,-0.00715509,0.0,0 STARLINK-3624,1 51773U 22017F   22112.91667824 -.00715509  00000-0 -98273-2 0  9996,2 51773  53.2173 225.5368 0001785  27.9030 359.2897 15.59077319 10099,6768.4630000000025,92.362,391.536,389.12,0.0
51773.0,STARLINK-3624,PAYLOAD,2022-04-23 14:00:01,15.5805611,0.0002072,53.2174,222.3054,30.419,139.4564,-0.010187,-0.00713657,0.0,0 STARLINK-3624,1 51773U 22017F   22113.58334491 -.00713657  00000-0 -10187-1 0  9990,2 51773  53.2174 222.3054 0002072  30.4190 139.4564 15.58056110  3695,6771.42,92.423,394.68800000000016,391.882,0.0
51773.0,STARLINK-3624,PAYLOAD,2022-04-23 22:00:00,15.57548197,0.0001665999999999,53.2172,220.6908,40.8269,199.4701,-0.010442,-0.00717191,0.0,0 STARLINK-3624,1 51773U 22017F   22113.91667824 -.00717191  00000-0 -10442-1 0  9997,2 51773  53.2172 220.6908 0001666  40.8269 199.4701 15.57548197 10240,6772.892,92.453,395.886,393.629,0.0
51773.0,STARLINK-3624,PAYLOAD,2022-04-24 14:00:01,15.56528596,0.0001884,53.2173,217.4674,28.077,351.2247,-0.010854,-0.00717472,0.0,0 STARLINK-3624,1 51773U 22017F   22114.58334491 -.00717472  00000-0 -10854-1 0  9991,2 51773  53.2173 217.4674 0001884  28.0770 351.2247 15.56528596  3753,6775.85,92.514,398.991,396.43800000000016,0.0
51773.0,STARLINK-3624,PAYLOAD,2022-04-25 06:00:00,15.55506938,0.0001665999999999,53.2172,214.246,42.2095,113.6481,-0.011207,-0.00713426,0.0,0 STARLINK-3624,1 51773U 22017F   22115.25001157 -.00713426  00000-0 -11207-1 0  9994,2 51773  53.2172 214.2460 0001666  42.2095 113.6481 15.55506938 10456,6778.816,92.574,401.811,399.552,0.0
51773.0,STARLINK-3624,PAYLOAD,2022-04-25 14:00:01,15.54996309,0.0001958,53.2173,212.6401,34.5042,188.7107,-0.011414,-0.0071307,0.0,0 STARLINK-3624,1 51773U 22017F   22115.58334491 -.00713070  00000-0 -11414-1 0  9995,2 51773  53.2173 212.6401 0001958  34.5042 188.7107 15.54996309  3717,6780.3,92.605,403.49300000000005,400.838,0.0
51773.0,STARLINK-3624,PAYLOAD,2022-04-25 22:00:00,15.54488191,0.0001323,53.2173,211.0327,55.9568,234.0033,-0.011687,-0.00716139,0.0,0 STARLINK-3624,1 51773U 22017F   22115.91667824 -.00716139  00000-0 -11687-1 0  9992,2 51773  53.2173 211.0327 0001323  55.9568 234.0033 15.54488191  3700,6781.778,92.635,404.54,402.746,0.0
51773.0,STARLINK-3624,PAYLOAD,2022-04-26 06:00:00,15.53975554,0.0001514,53.2175,209.4262,39.6113,316.4825,-0.011813,-0.00710854,0.0,0 STARLINK-3624,1 51773U 22017F   22116.25001157 -.00710854  00000-0 -11813-1 0  9990,2 51773  53.2175 209.4262 0001514  39.6113 316.4825 15.53975554 10613,6783.269,92.666,406.161,404.107,0.0
51773.0,STARLINK-3624,PAYLOAD,2022-04-26 14:00:01,15.53468549,0.000182,53.2176,207.8242,31.5724,30.1035,-0.012135,-0.00716347,0.0,0 STARLINK-3624,1 51773U 22017F   22116.58335648 -.00716347  00000-0 -12135-1 0  9992,2 51773  53.2176 207.8242 0001820  31.5724  30.1035 15.53468549  3697,6784.745,92.696,407.845,405.375,0.0
51773.0,STARLINK-3624,PAYLOAD,2022-04-26 22:00:00,15.52957062,0.000183,53.2173,206.2201,32.7093,93.8101,-0.012312,-0.00713604,0.0,0 STARLINK-3624,1 51773U 22017F   22116.91667824 -.00713604  00000-0 -12312-1 0  9993,2 51773  53.2173 206.2201 0001830  32.7093  93.8101 15.52957062  3675,6786.235,92.726,409.342,406.858,0.0
51773.0,STARLINK-3624,PAYLOAD,2022-04-27 06:00:00,15.52446596,0.0001965,53.2175,204.6176,33.9181,156.8955,-0.012501,-0.00711456,0.0,0 STARLINK-3624,1 51773U 22017F   22117.25001157 -.00711456  00000-0 -12501-1 0  9995,2 51773  53.2175 204.6176 0001965  33.9181 156.8955 15.52446596 10760,6787.722,92.757,410.921,408.253,0.0
51773.0,STARLINK-3624,PAYLOAD,2022-04-27 14:00:01,15.51803247,0.0001746,53.217,203.0205,47.408,207.2208,-0.0094381,-0.00536588,0.0,0 STARLINK-3624,1 51773U 22017F   22117.58335648 -.00536588  00000-0 -94381-2 0  9994,2 51773  53.2170 203.0205 0001746  47.4080 207.2208 15.51803247  3668,6789.598000000001,92.795,412.649,410.278,0.0
51773.0,STARLINK-3624,PAYLOAD,2022-04-28 06:00:00,15.50829438,0.0001654,53.2164,199.821,36.3341,343.733,-0.011032,-0.00600694,0.0,0 STARLINK-3624,1 51773U 22017F   22118.25001157 -.00600694  00000-0 -11032-1 0  9995,2 51773  53.2164 199.8210 0001654  36.3341 343.7330 15.50829438 10922,6792.44,92.854,415.429,413.182,0.0
51773.0,STARLINK-3624,PAYLOAD,2022-04-28 14:00:01,15.50351598,0.0001729,53.2174,198.226,33.5314,48.3401,-0.010777,-0.00578517,0.0,0 STARLINK-3624,1 51773U 22017F   22118.58334491 -.00578517  00000-0 -10777-1 0  9994,2 51773  53.2174 198.2260 0001729  33.5314  48.3401 15.50351598  3716,6793.8359999999975,92.882,416.875,414.526,0.0
51773.0,STARLINK-3624,PAYLOAD,2022-04-28 20:00:01,15.49911066,0.0001567,53.2173,197.0293,40.08,357.7721,-0.00073893,-0.00042204,0.0,0 STARLINK-3624,1 51773U 22017F   22118.83334491 -.00042204  00000-0 -73893-3 0  9991,2 51773  53.2173 197.0293 0001567  40.0800 357.7721 15.49911066 11015,6795.123000000001,92.909,418.05300000000005,415.923,0.0
51773.0,STARLINK-3624,PAYLOAD,2022-04-29 14:00:01,15.50101165,0.0001891,53.2158,193.4487,24.3801,240.7158,-0.013104,-0.00687528,0.0,0 STARLINK-3624,1 51773U 22017F   22119.58334491 -.00687528  00000-0 -13104-1 0  9995,2 51773  53.2158 193.4487 0001891  24.3801 240.7158 15.50101165 11130,6794.566999999999,92.897,417.717,415.148,0.0
51773.0,STARLINK-3624,PAYLOAD,2022-04-29 22:00:00,15.49698419,0.0001721999999999,53.2169,191.85,24.5851,301.3514,-0.0077986999999999,-0.00417539,0.0,0 STARLINK-3624,1 51773U 22017F   22119.91667824 -.00417539  00000-0 -77987-2 0  9994,2 51773  53.2169 191.8500 0001722  24.5851 301.3514 15.49698419 11186,6795.745,92.921,418.78,416.439,0.0
51773.0,STARLINK-3624,PAYLOAD,2022-04-30 06:00:00,15.49398936,0.0001958,53.2177,190.2542,25.8265,0.6395,-0.013976,-0.00722025,0.0,0 STARLINK-3624,1 51773U 22017F   22120.25001157 -.00722025  00000-0 -13976-1 0  9990,2 51773  53.2177 190.2542 0001958  25.8265   0.6395 15.49398936 11231,6796.62,92.939,419.816,417.154,0.0
51773.0,STARLINK-3624,PAYLOAD,2022-04-30 14:00:01,15.48887246,0.0002075,53.2176,188.6629,26.0245,60.4596,-0.014185,-0.00719866,0.0,0 STARLINK-3624,1 51773U 22017F   22120.58334491 -.00719866  00000-0 -14185-1 0  9998,2 51773  53.2176 188.6629 0002075  26.0245  60.4596 15.48887246  3671,6798.1169999999975,92.97,421.393,418.571,0.0
51773.0,STARLINK-3624,PAYLOAD,2022-04-30 22:00:00,15.48377982,0.0001891,53.2174,187.0693,33.3144,112.576,-0.014451,-0.00720253,0.0,0 STARLINK-3624,1 51773U 22017F   22120.91667824 -.00720253  00000-0 -14451-1 0  9992,2 51773  53.2174 187.0693 0001891  33.3144 112.5760 15.48377982  3704,6799.608,93.001,422.758,420.187,0.0
51773.0,STARLINK-3624,PAYLOAD,2022-05-01 06:00:00,15.47867518,0.000197,53.2177,185.4785,34.2579,170.4255,-0.014688,-0.00719158,0.0,0 STARLINK-3624,1 51773U 22017F   22121.25001157 -.00719158  00000-0 -14688-1 0  9995,2 51773  53.2177 185.4785 0001970  34.2579 170.4255 15.47867518 11384,6801.102,93.031,424.307,421.628,0.0
51773.0,STARLINK-3624,PAYLOAD,2022-05-01 14:00:01,15.47356694,0.0001891,53.2175,183.8908,35.2729,227.5898,-0.0149259999999999,-0.00717945,0.0,0 STARLINK-3624,1 51773U 22017F   22121.58334491 -.00717945  00000-0 -14926-1 0  9998,2 51773  53.2175 183.8908 0001891  35.2729 227.5898 15.47356694  3679,6802.599,93.062,425.751,423.17800000000005,0.0
51773.0,STARLINK-3624,PAYLOAD,2022-05-01 22:00:01,15.46849564,0.0001426999999999,53.2175,182.3008,46.3543,274.1402,-0.01531,-0.00723027,0.0,0 STARLINK-3624,1 51773U 22017F   22121.91668981 -.00723027  00000-0 -15310-1 0  9995,2 51773  53.2175 182.3008 0001427  46.3543 274.1402 15.46849564  3699,6804.0859999999975,93.092,426.922,424.98,0.0
51773.0,STARLINK-3624,PAYLOAD,2022-05-02 06:00:00,15.46258886,0.0001616,53.2164,180.7149,40.1444,337.28,-0.013059,-0.00604978,0.0,0 STARLINK-3624,1 51773U 22017F   22122.25001157 -.00604978  00000-0 -13059-1 0  9990,2 51773  53.2164 180.7149 0001616  40.1444 337.2800 15.46258886 11544,6805.819,93.128,428.783,426.584,0.0
51773.0,STARLINK-3624,PAYLOAD,2022-05-02 14:00:01,15.45825451,0.0001767,53.2174,179.1298,31.7995,41.9271,-0.015699,-0.00716133,0.0,0 STARLINK-3624,1 51773U 22017F   22122.58334491 -.00716133  00000-0 -15699-1 0  9995,2 51773  53.2174 179.1298 0001767  31.7995  41.9271 15.45825451 11599,6807.090999999999,93.154,430.159,427.753,0.0
51773.0,STARLINK-3624,PAYLOAD,2022-05-02 22:00:01,15.45317015,0.0001730999999999,53.2174,177.5433,36.5311,92.9892,-0.016024,-0.00718093,0.0,0 STARLINK-3624,1 51773U 22017F   22122.91668981 -.00718093  00000-0 -16024-1 0  9996,2 51773  53.2174 177.5433 0001731  36.5311  92.9892 15.45317015  3697,6808.584,93.185,431.627,429.27,0.0
